CCSDS_OMM_VERS = 2.0
CREATION_DATE  = 
ORIGINATOR     = 

OBJECT_NAME    = SL-14 R/B
OBJECT_ID      = 1986-046B
CENTER_NAME    = EARTH
REF_FRAME      = TEME
TIME_SYSTEM    = UTC
MEAN_ELEMENT_THEORY = SGP/SGP4

EPOCH          = 2026-04-03T20:43:01.938432
MEAN_MOTION    = 14.85617945
ECCENTRICITY   = .00240333
INCLINATION    = 82.4815
RA_OF_ASC_NODE = 56.3912
ARG_OF_PERICENTER = 141.7301
MEAN_ANOMALY   = 218.5627

EPHEMERIS_TYPE = 0
CLASSIFICATION_TYPE = U
NORAD_CAT_ID   = 16792
ELEMENT_SET_NO = 999
REV_AT_EPOCH   = 13014
BSTAR          = .93537982E-4
MEAN_MOTION_DOT = .838E-5
MEAN_MOTION_DDOT = 0

CCSDS_OMM_VERS = 2.0
CREATION_DATE  = 
ORIGINATOR     = 

OBJECT_NAME    = SL-14 R/B
OBJECT_ID      = 1986-055B
CENTER_NAME    = EARTH
REF_FRAME      = TEME
TIME_SYSTEM    = UTC
MEAN_ELEMENT_THEORY = SGP/SGP4

EPOCH          = 2026-04-03T12:46:38.954784
MEAN_MOTION    = 14.85667098
ECCENTRICITY   = .00174077
INCLINATION    = 82.5169
RA_OF_ASC_NODE = 103.3167
ARG_OF_PERICENTER = 248.2650
MEAN_ANOMALY   = 233.3338

EPHEMERIS_TYPE = 0
CLASSIFICATION_TYPE = U
NORAD_CAT_ID   = 16882
ELEMENT_SET_NO = 999
REV_AT_EPOCH   = 12305
BSTAR          = .86304442E-4
MEAN_MOTION_DOT = .773E-5
MEAN_MOTION_DDOT = 0

CCSDS_OMM_VERS = 2.0
CREATION_DATE  = 
ORIGINATOR     = 

OBJECT_NAME    = AJISAI (EGS)
OBJECT_ID      = 1986-061A
CENTER_NAME    = EARTH
REF_FRAME      = TEME
TIME_SYSTEM    = UTC
MEAN_ELEMENT_THEORY = SGP/SGP4

EPOCH          = 2026-04-03T22:39:13.322016
MEAN_MOTION    = 12.44515644
ECCENTRICITY   = .00113523
INCLINATION    = 50.0123
RA_OF_ASC_NODE = 15.6912
ARG_OF_PERICENTER = 352.0275
MEAN_ANOMALY   = 131.2466

EPHEMERIS_TYPE = 0
CLASSIFICATION_TYPE = U
NORAD_CAT_ID   = 16908
ELEMENT_SET_NO = 999
REV_AT_EPOCH   = 47114
BSTAR          = -.31409336E-4
MEAN_MOTION_DOT = -.102E-5
MEAN_MOTION_DDOT = 0

CCSDS_OMM_VERS = 2.0
CREATION_DATE  = 
ORIGINATOR     = 

OBJECT_NAME    = SL-14 R/B
OBJECT_ID      = 1987-024B
CENTER_NAME    = EARTH
REF_FRAME      = TEME
TIME_SYSTEM    = UTC
MEAN_ELEMENT_THEORY = SGP/SGP4

EPOCH          = 2026-04-03T22:54:52.496064
MEAN_MOTION    = 14.86159280
ECCENTRICITY   = .00183652
INCLINATION    = 82.5263
RA_OF_ASC_NODE = 69.0107
ARG_OF_PERICENTER = 172.1467
MEAN_ANOMALY   = 188.0041

EPHEMERIS_TYPE = 0
CLASSIFICATION_TYPE = U
NORAD_CAT_ID   = 17567
ELEMENT_SET_NO = 999
REV_AT_EPOCH   = 9188
BSTAR          = .90170315E-4
MEAN_MOTION_DOT = .817E-5
MEAN_MOTION_DDOT = 0

CCSDS_OMM_VERS = 2.0
CREATION_DATE  = 
ORIGINATOR     = 

OBJECT_NAME    = COSMOS 1833
OBJECT_ID      = 1987-027A
CENTER_NAME    = EARTH
REF_FRAME      = TEME
TIME_SYSTEM    = UTC
MEAN_ELEMENT_THEORY = SGP/SGP4

EPOCH          = 2026-04-03T20:22:42.406752
MEAN_MOTION    = 14.13044513
ECCENTRICITY   = .00229965
INCLINATION    = 70.9164
RA_OF_ASC_NODE = 273.1352
ARG_OF_PERICENTER = 176.9964
MEAN_ANOMALY   = 183.1300

EPHEMERIS_TYPE = 0
CLASSIFICATION_TYPE = U
NORAD_CAT_ID   = 17589
ELEMENT_SET_NO = 999
REV_AT_EPOCH   = 1387
BSTAR          = -.13940007E-3
MEAN_MOTION_DOT = -.309E-5
MEAN_MOTION_DDOT = 0

CCSDS_OMM_VERS = 2.0
CREATION_DATE  = 
ORIGINATOR     = 

OBJECT_NAME    = SL-16 R/B
OBJECT_ID      = 1987-027B
CENTER_NAME    = EARTH
REF_FRAME      = TEME
TIME_SYSTEM    = UTC
MEAN_ELEMENT_THEORY = SGP/SGP4

EPOCH          = 2026-04-03T19:41:18.110400
MEAN_MOTION    = 14.17168275
ECCENTRICITY   = .00028715
INCLINATION    = 71.0024
RA_OF_ASC_NODE = 223.5345
ARG_OF_PERICENTER = 79.1178
MEAN_ANOMALY   = 281.0268

EPHEMERIS_TYPE = 0
CLASSIFICATION_TYPE = U
NORAD_CAT_ID   = 17590
ELEMENT_SET_NO = 999
REV_AT_EPOCH   = 1890
BSTAR          = .16848181E-3
MEAN_MOTION_DOT = .292E-5
MEAN_MOTION_DDOT = 0

CCSDS_OMM_VERS = 2.0
CREATION_DATE  = 
ORIGINATOR     = 

OBJECT_NAME    = SL-14 R/B
OBJECT_ID      = 1987-038B
CENTER_NAME    = EARTH
REF_FRAME      = TEME
TIME_SYSTEM    = UTC
MEAN_ELEMENT_THEORY = SGP/SGP4

EPOCH          = 2026-04-03T21:29:17.399328
MEAN_MOTION    = 14.85395222
ECCENTRICITY   = .00207489
INCLINATION    = 82.4977
RA_OF_ASC_NODE = 273.0552
ARG_OF_PERICENTER = 82.0589
MEAN_ANOMALY   = 278.2981

EPHEMERIS_TYPE = 0
CLASSIFICATION_TYPE = U
NORAD_CAT_ID   = 17912
ELEMENT_SET_NO = 999
REV_AT_EPOCH   = 8297
BSTAR          = .91783817E-4
MEAN_MOTION_DOT = .817E-5
MEAN_MOTION_DDOT = 0

CCSDS_OMM_VERS = 2.0
CREATION_DATE  = 
ORIGINATOR     = 

OBJECT_NAME    = COSMOS 1844
OBJECT_ID      = 1987-041A
CENTER_NAME    = EARTH
REF_FRAME      = TEME
TIME_SYSTEM    = UTC
MEAN_ELEMENT_THEORY = SGP/SGP4

EPOCH          = 2026-04-03T22:16:33.374784
MEAN_MOTION    = 14.14561815
ECCENTRICITY   = .00314787
INCLINATION    = 70.9016
RA_OF_ASC_NODE = 340.9435
ARG_OF_PERICENTER = 340.8314
MEAN_ANOMALY   = 19.1620

EPHEMERIS_TYPE = 0
CLASSIFICATION_TYPE = U
NORAD_CAT_ID   = 17973
ELEMENT_SET_NO = 999
REV_AT_EPOCH   = 715
BSTAR          = .21626537E-3
MEAN_MOTION_DOT = .369E-5
MEAN_MOTION_DDOT = 0

CCSDS_OMM_VERS = 2.0
CREATION_DATE  = 
ORIGINATOR     = 

OBJECT_NAME    = SL-14 R/B
OBJECT_ID      = 1987-055B
CENTER_NAME    = EARTH
REF_FRAME      = TEME
TIME_SYSTEM    = UTC
MEAN_ELEMENT_THEORY = SGP/SGP4

EPOCH          = 2026-04-03T17:35:35.079360
MEAN_MOTION    = 14.85655666
ECCENTRICITY   = .00192199
INCLINATION    = 82.4996
RA_OF_ASC_NODE = 325.4307
ARG_OF_PERICENTER = 292.6522
MEAN_ANOMALY   = 67.2661

EPHEMERIS_TYPE = 0
CLASSIFICATION_TYPE = U
NORAD_CAT_ID   = 18153
ELEMENT_SET_NO = 999
REV_AT_EPOCH   = 7365
BSTAR          = .78296914E-4
MEAN_MOTION_DOT = .704E-5
MEAN_MOTION_DDOT = 0

CCSDS_OMM_VERS = 2.0
CREATION_DATE  = 
ORIGINATOR     = 

OBJECT_NAME    = COSMOS 1867
OBJECT_ID      = 1987-060A
CENTER_NAME    = EARTH
REF_FRAME      = TEME
TIME_SYSTEM    = UTC
MEAN_ELEMENT_THEORY = SGP/SGP4

EPOCH          = 2026-04-03T17:32:48.556320
MEAN_MOTION    = 14.31507283
ECCENTRICITY   = .0014935
INCLINATION    = 65.0101
RA_OF_ASC_NODE = 236.5733
ARG_OF_PERICENTER = 280.0607
MEAN_ANOMALY   = 79.8792

EPHEMERIS_TYPE = 0
CLASSIFICATION_TYPE = U
NORAD_CAT_ID   = 18187
ELEMENT_SET_NO = 999
REV_AT_EPOCH   = 2352
BSTAR          = .44788955E-4
MEAN_MOTION_DOT = .19E-6
MEAN_MOTION_DDOT = 0

CCSDS_OMM_VERS = 2.0
CREATION_DATE  = 
ORIGINATOR     = 

OBJECT_NAME    = SL-14 R/B
OBJECT_ID      = 1988-001B
CENTER_NAME    = EARTH
REF_FRAME      = TEME
TIME_SYSTEM    = UTC
MEAN_ELEMENT_THEORY = SGP/SGP4

EPOCH          = 2026-04-03T14:17:25.610784
MEAN_MOTION    = 14.85556698
ECCENTRICITY   = .0018808
INCLINATION    = 82.5157
RA_OF_ASC_NODE = 171.9431
ARG_OF_PERICENTER = 151.9375
MEAN_ANOMALY   = 208.2859

EPHEMERIS_TYPE = 0
CLASSIFICATION_TYPE = U
NORAD_CAT_ID   = 18749
ELEMENT_SET_NO = 999
REV_AT_EPOCH   = 4572
BSTAR          = .85536E-4
MEAN_MOTION_DOT = .766E-5
MEAN_MOTION_DDOT = 0

CCSDS_OMM_VERS = 2.0
CREATION_DATE  = 
ORIGINATOR     = 

OBJECT_NAME    = COSMOS 1933
OBJECT_ID      = 1988-020A
CENTER_NAME    = EARTH
REF_FRAME      = TEME
TIME_SYSTEM    = UTC
MEAN_ELEMENT_THEORY = SGP/SGP4

EPOCH          = 2026-04-03T18:30:48.875328
MEAN_MOTION    = 15.18241542
ECCENTRICITY   = .0005489
INCLINATION    = 82.5138
RA_OF_ASC_NODE = 226.0899
ARG_OF_PERICENTER = 109.4557
MEAN_ANOMALY   = 250.7271

EPHEMERIS_TYPE = 0
CLASSIFICATION_TYPE = U
NORAD_CAT_ID   = 18958
ELEMENT_SET_NO = 999
REV_AT_EPOCH   = 5403
BSTAR          = .42051E-3
MEAN_MOTION_DOT = .8641E-4
MEAN_MOTION_DDOT = 0

